SILVERSAT               
1 66909U 98067XV  26038.48133678  .00161676  00000+0  17343-2 0  9995
2 66909  51.6271 218.4396 0002552 229.2815 130.7958 15.62750268 10455
ISS OBJECT XW           
1 66910U 98067XW  26037.72755906  .00114383  00000+0  13119-2 0  9997
2 66910  51.6257 222.4006 0000958 240.3067 119.7831 15.61211268 10330
ISS OBJECT XX           
1 66911U 98067XX  26037.74954576  .00154731  00000+0  15986-2 0  9999
2 66911  51.6250 221.7970 0002423 254.7739 105.2988 15.63735398 10330
ISS OBJECT XY           
1 66912U 98067XY  26038.49201159  .00097064  00000+0  12349-2 0  9990
2 66912  51.6282 219.2626 0001119 161.1968 198.9066 15.58567239 10430
ISS OBJECT XZ           
1 67683U 98067XZ  26038.50070012  .00047759  00000+0  85613-3 0  9991
2 67683  51.6308 221.5665 0011048  89.7127 270.5127 15.49390412   103
ISS OBJECT YA           
1 67684U 98067YA  26038.50003554  .00089100  00000+0  15593-2 0  9994
2 67684  51.6310 221.5638 0013092  85.3327 274.9157 15.49772232   107
ISS OBJECT YB           
1 67685U 98067YB  26037.92012590  .00047751  00000+0  85682-3 0  9993
2 67685  51.6312 224.4405 0007864  62.7877 297.3912 15.49395303   549
ISS OBJECT YC           
1 67686U 98067YC  26037.98451009  .00052538  00000+0  93889-3 0  9999
2 67686  51.6314 224.1206 0007735  62.2284 297.9488 15.49469854    22
ISS OBJECT YD           
1 67687U 98067YD  26038.43610971  .00050121  00000+0  89722-3 0  9993
2 67687  51.6313 221.8860 0007860  64.4814 295.6987 15.49440924    19
ISS OBJECT YE           
1 67688U 98067YE  26038.50046821  .00058954  00000+0  10498-2 0  9994
2 67688  51.6319 221.5673 0007820  63.4512 296.7277 15.49521333    24
